BEIDOU-3 M25 (C47)      
1 61186U 24168B   26066.16989234 -.00000069  00000+0  00000+0 0  9999
2 61186  54.5633 305.7886 0004258 319.2946 221.4621  1.86230307  9883
BEIDOU-3 M27 (C49)      
1 61187U 24168C   26064.31689484 -.00000067  00000+0  00000+0 0  9997
2 61187  54.5604 305.8361 0002980  20.4343 132.9740  1.86230358  7324
